{
    "links": {
        "self": "http://www.neowsapp.com/rest/v1/neo/3291168?api_key=iIulBulltgU6a56xZRHN4H3l9WmuAYTsLGpBGhQ2"
    },
    "id": "3291168",
    "neo_reference_id": "3291168",
    "name": "(2005 SV4)",
    "designation": "2005 SV4",
    "nasa_jpl_url": "http://ssd.jpl.nasa.gov/sbdb.cgi?sstr=3291168",
    "absolute_magnitude_h": 22.7,
    "estimated_diameter": {
        "kilometers": {
            "estimated_diameter_min": 0.0766575574,
            "estimated_diameter_max": 0.1714115092
        },
        "meters": {
            "estimated_diameter_min": 76.6575573531,
            "estimated_diameter_max": 171.4115092306
        },
        "miles": {
            "estimated_diameter_min": 0.0476327831,
            "estimated_diameter_max": 0.1065101409
        },
        "feet": {
            "estimated_diameter_min": 251.5011804664,
            "estimated_diameter_max": 562.3737359442
        }
    },
    "is_potentially_hazardous_asteroid": false,
    "close_approach_data": [
        {
            "close_approach_date": "2005-09-13",
            "close_approach_date_full": "2005-Sep-13 22:38",
            "epoch_date_close_approach": 1126651080000,
            "relative_velocity": {
                "kilometers_per_second": "12.3318986627",
                "kilometers_per_hour": "44394.8351857844",
                "miles_per_hour": "27585.2241186337"
            },
            "miss_distance": {
                "astronomical": "0.0523293856",
                "lunar": "20.3561309984",
                "kilometers": "7828364.624168672",
                "miles": "4864320.2159327936"
            },
            "orbiting_body": "Earth"
        },
        {
            "close_approach_date": "2042-10-12",
            "close_approach_date_full": "2042-Oct-12 08:37",
            "epoch_date_close_approach": 2296715820000,
            "relative_velocity": {
                "kilometers_per_second": "23.091961129",
                "kilometers_per_hour": "83131.0600644979",
                "miles_per_hour": "51654.4078495209"
            },
            "miss_distance": {
                "astronomical": "0.4016028252",
                "lunar": "156.2234990028",
                "kilometers": "60078927.235902324",
                "miles": "37331314.3083431112"
            },
            "orbiting_body": "Earth"
        },
        {
            "close_approach_date": "2131-06-04",
            "close_approach_date_full": "2131-Jun-04 08:01",
            "epoch_date_close_approach": 5094000060000,
            "relative_velocity": {
                "kilometers_per_second": "22.4753868476",
                "kilometers_per_hour": "80911.392651342",
                "miles_per_hour": "50275.1928393853"
            },
            "miss_distance": {
                "astronomical": "0.4492729566",
                "lunar": "174.7671801174",
                "kilometers": "67210277.355962442",
                "miles": "41762529.7947560196"
            },
            "orbiting_body": "Earth"
        }
    ],
    "orbital_data": {
        "orbit_id": "10",
        "orbit_determination_date": "2017-04-06 09:10:27",
        "first_observation_date": "2005-09-25",
        "last_observation_date": "2005-10-22",
        "data_arc_in_days": 27,
        "observations_used": 39,
        "orbit_uncertainty": "7",
        "minimum_orbit_intersection": ".0223256",
        "jupiter_tisserand_invariant": "3.249",
        "epoch_osculation": "2459000.5",
        "eccentricity": ".5974769983039167",
        "semi_major_axis": "2.396768956210288",
        "inclination": "8.110446664137378",
        "ascending_node_longitude": "173.5565019853602",
        "orbital_period": "1355.307005741415",
        "perihelion_distance": ".9647546346257535",
        "perihelion_argument": "141.5608164369403",
        "aphelion_distance": "3.828783277794822",
        "perihelion_time": "2459031.518188124739",
        "mean_anomaly": "351.7608721288964",
        "mean_motion": ".2656224740777929",
        "equinox": "J2000",
        "orbit_class": {
            "orbit_class_type": "APO",
            "orbit_class_description": "Near-Earth asteroid orbits which cross the Earth’s orbit similar to that of 1862 Apollo",
            "orbit_class_range": "a (semi-major axis) > 1.0 AU; q (perihelion) < 1.017 AU"
        }
    },
    "is_sentry_object": false
}